SL-8 R/B                
1 15483U 85006B   26195.92483145  .00000126  00000+0  50634-4 0  9999
2 15483  74.0453  27.0187 0019259 270.0731 197.1850 14.37845240172310
SL-12 R/B(2)            
1 15772U 85042D   26195.46908632 -.00000023  00000+0  11158-4 0  9997
2 15772  71.1066 179.8755 0037310 287.2413 201.8033 14.22010809132413
SL-14 R/B               
1 15945U 85069B   26195.70011678  .00000212  00000+0  21099-4 0  9994
2 15945  82.5263 265.4919 0020013 128.8171 231.4837 14.86534936191707
SL-16 R/B               
1 16182U 85097B   26195.53251726  .00000110  00000+0  79059-4 0  9996
2 16182  71.0008 233.5079 0005610  53.0778  52.3058 14.16612570105199
SL-14 R/B               
1 16496U 86006B   26195.91093959  .00000238  00000+0  22486-4 0  9992
2 16496  82.5282 140.0250 0075440 209.8049 149.8863 14.86968188168114
COSMOS 1743             
1 16719U 86034A   26195.77537951  .00037565  00000+0  31712-3 0  9994
2 16719  82.5284 299.3434 0005391 177.7066 182.4221 15.69584224200111
SL-14 R/B               
1 16792U 86046B   26195.83413645  .00000240  00000+0  24718-4 0  9997
2 16792  82.4839 320.0518 0023494 164.1915 196.0040 14.85690396145280
SL-14 R/B               
1 16882U 86055B   26195.97031998  .00000217  00000+0  22217-4 0  9995
2 16882  82.5203   7.0077 0017307 271.0772 204.6458 14.85740202138264
AJISAI (EGS)            
1 16908U 86061A   26195.92803541 -.00000111  00000+0 -95833-4 0  9996
2 16908  50.0106  62.0930 0011092 251.1801 206.9072 12.44516653483849
SL-14 R/B               
1 17567U 87024B   26195.88864351  .00000223  00000+0  22487-4 0  9996
2 17567  82.5297 333.2120 0017786 194.8266 165.2432 14.86231588107029
COSMOS 1833             
1 17589U 87027A   26195.85767411  .00000090  00000+0  73581-4 0  9992
2 17589  70.9213  58.7099 0024232   9.2465 350.9097 14.13066531 28284
SL-16 R/B               
1 17590U 87027B   26195.88509114  .00000081  00000+0  64085-4 0  9990
2 17590  71.0032   8.4593 0007141 281.9790  78.0533 14.17173383 33364
SL-14 R/B               
1 17912U 87038B   26195.41023261  .00000213  00000+0  21729-4 0  9998
2 17912  82.5012 177.4292 0020810 104.6011 255.7514 14.85461149 98049
COSMOS 1844             
1 17973U 87041A   26195.89760148  .00000088  00000+0  70834-4 0  9994
2 17973  70.8998 125.8574 0031357 195.6963 164.3190 14.14580695 21572
SL-14 R/B               
1 18153U 87055B   26195.56678166  .00000203  00000+0  20602-4 0  9999
2 18153  82.4973 229.4178 0019454 317.2918  42.6785 14.85726770 88779
COSMOS 1867             
1 18187U 87060A   26195.65840600 -.00000065  00000+0  13419-4 0  9991
2 18187  65.0119 311.1232 0017127 281.9925  77.9240 14.31518447 38116
SL-14 R/B               
1 18749U 88001B   26195.77281120  .00000202  00000+0  20512-4 0  9994
2 18749  82.5120  75.8201 0018133 173.1770 186.9697 14.85626644 60899
COSMOS 1933             
1 18958U 88020A   26195.90615580  .00001729  00000+0  81400-4 0  9991
2 18958  82.5142 124.9844 0005875 108.0321 252.1554 15.18887505 69532
SL-3 R/B                
1 19046U 88032B   26195.94112230  .00002080  00000+0  96137-4 0  9995
2 19046  97.5270 178.9597 0026473 146.5891 213.7022 15.21030236 71440
SL-16 R/B               
1 19120U 88039B   26195.88291706 -.00000067  00000+0 -89230-5 0  9996
2 19120  71.0124 159.5951 0020637 149.8939 210.3377 14.19631366976438
COSMOS 1953             
1 19210U 88050A   26195.94222203  .00004390  00000+0  14824-3 0  9998
2 19210  82.5058  30.0349 0011559  40.6966 319.5136 15.30335822 57231
SL-8 R/B                
1 19257U 88053B   26195.61679567  .00000128  00000+0  49806-4 0  9999
2 19257  74.0459 238.4953 0019705  24.2594  93.5666 14.38978113994852
COSMOS 1975             
1 19573U 88093A   26195.89363142  .00003767  00000+0  12963-3 0  9998
2 19573  82.5197 349.8224 0012535  83.3921 276.8746 15.29659856 38842
SL-14 R/B               
1 19574U 88093B   26195.76125787  .00000198  00000+0  19955-4 0  9990
2 19574  82.5316 282.7593 0020058 341.7972 136.5487 14.85759940 19889
SL-16 R/B               
1 19650U 88102B   26195.55262064 -.00000140  00000+0 -46752-4 0  9997
2 19650  70.9978 244.5592 0014344 186.5254 173.5685 14.16166708944856
INTERCOSMOS 24          
1 20261U 89080A   26195.89235268  .00000142  00000+0  37672-4 0  9997
2 20261  82.6049  21.6116 1187184 357.6488   1.9300 12.59691939682812
SL-14 R/B               
1 20262U 89080C   26195.76252501  .00000068  00000+0  19938-4 0  9995
2 20262  82.5934  91.5902 1228688 254.2815  91.9672 12.50578429676032
DELTA 1 R/B             
1 20323U 89089B   26195.94618271  .00000133  00000+0  41233-4 0  9998
2 20323  97.0635  23.0621 0070635  80.7606 280.1573 14.50747755914188
ARIANE 40 R/B           
1 20443U 90005H   26195.77041532  .00000096  00000+0  43880-4 0  9990
2 20443  98.2946 252.5267 0010238 175.2570 184.8718 14.39940559911099
DELTA 2 R/B(1)          
1 20453U 90008B   26195.89453631  .00079925  00000+0  48965-3 0  9999
2 20453  35.5999  49.6579 0059150  13.1124 347.1141 15.73550372946062
